#aV2009  8  2  0  0   .00000000      96 DD+AD WGS84 FIT  NGA
## 1543       .00000000   900.00000000 55045  .0000000000000
+   31     1  2  3  4  6  7  8  9 10 11 12 13 14 15 16 17 18
+         19 20 21 22 23 24 25 26 27 28 29 30 31 32  0  0  0
+          0  0  0  0  0  0  0  0  0  0  0  0  0  0  0  0  0
+          0  0  0  0  0  0  0  0  0  0  0  0  0  0  0  0  0
+          0  0  0  0  0  0  0  0  0  0  0  0  0  0  0  0  0
++         0  0  0  0  0  0  0  0  0  0  0  0  0  0  0  0  0
++         0  0  0  0  0  0  0  0  0  0  0  0  0  0  0  0  0
++         0  0  0  0  0  0  0  0  0  0  0  0  0  0  0  0  0
++         0  0  0  0  0  0  0  0  0  0  0  0  0  0  0  0  0
++         0  0  0  0  0  0  0  0  0  0  0  0  0  0  0  0  0
%c cc cc ccc ccc cccc cccc cccc cccc ccccc ccccc ccccc ccccc
%c cc cc ccc ccc cccc cccc cccc cccc ccccc ccccc ccccc ccccc
%f  0.0000000  0.000000000  0.00000000000  0.000000000000000
%f  0.0000000  0.000000000  0.00000000000  0.000000000000000
%i    0    0    0    0      0      0      0      0         0
%i    0    0    0    0      0      0      0      0         0
/*      NGA, ST. LOUIS,MO.                                  
/*   EPHEMERIS COMPUTED FROM  3 DAYS OF DATA                
/* CCCCCCCCCCCCCCCCCCCCCCCCCCCCCCCCCCCCCCCCCCCCCCCCCCCCCCCCC
/* CCCCCCCCCCCCCCCCCCCCCCCCCCCCCCCCCCCCCCCCCCCCCCCCCCCCCCCCC
*  2009  8  2 18 15   .00000000                                                 
P  1  17719.094997  19781.338456   1707.247943    -61.286141                    
V  1   -646.846533   3470.421248 -31610.761273       .022309                    
P  2 -18624.086337  13032.787100  13305.980773    163.092348                    
V  2 -17503.930472    -77.358403 -24698.118646       .020644                    
P  3   9719.467126 -24027.709820   4530.416249    428.411279                    
V  3   2459.181125   7076.900503  30484.226897       .051399                    
P  4 -25671.603808   6567.763110   3597.903739   -202.079272                    
V  4  -5116.921641  -2391.810511 -30605.584859      -.167530                    
P  6  13617.719033 -21213.903930   8428.623169    209.139394                    
V  6    -99.830143  11044.891561  28677.279807       .095908                    
P  7 -19663.159974  -8066.859057  15991.391269     14.118465                    
V  7  19773.202831  -4803.376967  21722.780964      -.006675                    
P  8 -26404.602199   -640.741723   4711.278050   -214.814425                    
V  8   5780.478367  -1999.336251  31304.089163      -.018877                    
P  9   1848.698286  15080.564619 -22449.790133     69.848319                    
V  9 -26405.904496   4935.399949   1245.146863       .018605                    
P 10  -6056.210685  15634.339004  20357.352673    -20.394350                    
V 10 -16959.218824 -20153.152424  10677.878839      -.007518                    
P 11  -5641.206456 -15875.363123 -20740.041647    -13.311384                    
V 11  24509.509388  -9294.792485    817.397253      -.016342                    
P 12  10259.696350  22826.688699  -9018.472789   -240.726036                    
V 12  -8947.911175  -7561.802550 -29001.271472       .060202                    
P 13  -9756.313254 -12109.176660  21399.463711    302.509892                    
V 13  11791.007271 -24729.231399  -8578.309404       .006808                    
P 14  16561.815631  -5251.672845 -19925.175301    -70.929982                    
V 14  -9265.837974  23821.405725 -14015.965163       .055369                    
P 15  -6814.903745  25407.829597  -3378.895438   -312.145602                    
V 15  -4300.806026   3030.720907  31308.860318      -.021199                    
P 16  10545.651329 -10881.855243  21848.795647     26.840191                    
V 16  17096.719379  21685.364659   2793.575068      -.036744                    
P 17 -16845.798082   4384.440482 -19933.360946     74.571999                    
V 17   8466.005599 -24116.495437 -12603.646369       .027120                    
P 18  19748.623949  15847.219044  -8394.210778      2.000032                    
V 18   4297.448413  10436.571381  28603.878351       .030414                    
P 19   7190.984746 -24738.879892  -5795.890583     16.717214                    
V 19   5957.851907  -5468.513584  30697.222109      -.014830                    
P 20 -11582.340140 -22600.036744  -7982.933855     75.747738                    
V 20   8858.565001   5577.648985 -29048.870372      -.009469                    
P 21  22210.408014   7058.432544  13574.466962      -.844267                    
V 21 -16128.791141   4612.728614  23864.896242      -.021720                    
P 22  19518.430646   5043.294134 -17169.494282    194.150278                    
V 22  11660.706343  18954.094932  18565.647879      -.008442                    
P 23  -1737.310992 -22202.344070  14195.912286    389.765243                    
V 23   8631.145460 -16168.056168 -24448.231942      -.002240                    
P 24   9688.874538  13793.090407  20598.436722    209.225101                    
V 24 -25706.878257   3798.067444   9860.031903       .029503                    
P 25 -12752.994546 -11341.997689  20639.809923    536.006344                    
V 25  24453.618953  -7190.283646  11532.632961       .165155                    
P 26  11516.668602   9868.493017 -22313.467527     64.727059                    
V 26 -11528.690695  24380.704863   5442.895514      -.001339                    
P 27  -4966.621131  15275.758227 -20471.142517     70.857651                    
V 27 -27094.693487   4973.240605   9963.511485       .032063                    
P 28 -19688.593477  -8231.989103 -15574.999206    -26.113592                    
V 28 -10937.550353 -17349.781716  22068.984798      -.000831                    
P 29   9323.280998  14546.359378  20285.623060     45.104947                    
V 29 -10731.867105  23178.153624 -11704.152712       .034327                    
P 30  17378.078689  20139.922051   -374.205109    165.717083                    
V 30  -2271.850419   1966.867548 -31527.865177       .029402                    
P 31  24699.629787  -8075.502792   6051.839430    -64.479859                    
V 31   7630.386445   1002.508024 -30707.042727      -.003769                    
P 32  -4438.384963 -22672.215661 -12952.261652    221.772220                    
V 32  11259.339150  12879.372800 -25374.794120      -.064278                    
EOF
